[{"OBJECT_NAME":"CARTOSAT-2F","OBJECT_ID":"2018-004A","EPOCH":"2026-03-09T22:50:21.052320","MEAN_MOTION":15.19266774,"ECCENTRICITY":8.279e-5,"INCLINATION":97.4159,"RA_OF_ASC_NODE":130.1064,"ARG_OF_PERICENTER":205.5127,"MEAN_ANOMALY":154.6067,"EPHEMERIS_TYPE":0,"CLASSIFICATION_TYPE":"U","NORAD_CAT_ID":43111,"ELEMENT_SET_NO":999,"REV_AT_EPOCH":45226,"BSTAR":0.00021023893,"MEAN_MOTION_DOT":4.366e-5,"MEAN_MOTION_DDOT":0},{"OBJECT_NAME":"YAOGAN-36 04A","OBJECT_ID":"2022-171A","EPOCH":"2026-03-09T13:33:55.536768","MEAN_MOTION":15.19645021,"ECCENTRICITY":0.0007143,"INCLINATION":34.9894,"RA_OF_ASC_NODE":125.487,"ARG_OF_PERICENTER":123.655,"MEAN_ANOMALY":236.4846,"EPHEMERIS_TYPE":0,"CLASSIFICATION_TYPE":"U","NORAD_CAT_ID":54746,"ELEMENT_SET_NO":999,"REV_AT_EPOCH":17995,"BSTAR":0.00040159,"MEAN_MOTION_DOT":8.745e-5,"MEAN_MOTION_DDOT":0}]
